NORAD_CAT_ID,OBJECT_NAME,OBJECT_TYPE,EPOCH,MEAN_MOTION,ECCENTRICITY,INCLINATION,RA_OF_ASC_NODE,ARG_OF_PERICENTER,MEAN_ANOMALY,BSTAR,MEAN_MOTION_DOT,MEAN_MOTION_DDOT,TLE_LINE0,TLE_LINE1,TLE_LINE2,SEMIMAJOR_AXIS,PERIOD,APOGEE,PERIGEE,DECAYED
55438.0,STARLINK-5074,PAYLOAD,2024-04-16 03:29:25,14.9832595,0.0002478,70.0013,10.4385,267.6444,92.4432,-0.00014939,-1.875e-05,0.0,0 STARLINK-5074,1 55438U 23014AZ  24107.14543767 -.00001875  00000-0 -14939-3 0  9998,2 55438  70.0013  10.4385 0002478 267.6444  92.4432 14.98325950 68322,6950.205,96.107,573.793,570.348,0.0
55438.0,STARLINK-5074,PAYLOAD,2024-04-16 21:06:53,14.98339557,0.0002833,70.0013,8.586,266.8175,93.2659,-7.6502e-05,-1.006e-05,0.0,0 STARLINK-5074,1 55438U 23014AZ  24107.87978418 -.00001006  00000-0 -76502-4 0  9994,2 55438  70.0013   8.5860 0002833 266.8175  93.2659 14.98339557 67490,6950.163,96.106,573.997,570.059,0.0
55438.0,STARLINK-5074,PAYLOAD,2024-04-17 03:31:24,14.98355317,0.0002918,70.0001,7.9145,259.5682,100.5148,1.1087e-05,3.9e-07,0.0,0 STARLINK-5074,1 55438U 23014AZ  24108.14680851  .00000039  00000-0  11087-4 0  9996,2 55438  70.0001   7.9145 0002918 259.5682 100.5148 14.98355317 67534,6950.115,96.105,574.008,569.952,0.0
55438.0,STARLINK-5074,PAYLOAD,2024-04-17 19:32:48,14.98303835,0.0002928,70.0005,6.2296,272.5261,87.5562,-6.2353e-05,-8.36e-06,0.0,0 STARLINK-5074,1 55438U 23014AZ  24108.81444606 -.00000836  00000-0 -62353-4 0  9995,2 55438  70.0005   6.2296 0002928 272.5261  87.5562 14.98303835 67639,6950.274,96.109,574.174,570.104,0.0
55438.0,STARLINK-5074,PAYLOAD,2024-04-17 21:08:56,14.98302494,0.000297,70.0007,6.0615,272.2007,87.8812,-6.8599e-05,-9.11e-06,0.0,0 STARLINK-5074,1 55438U 23014AZ  24108.88120801 -.00000911  00000-0 -68599-4 0  9992,2 55438  70.0007   6.0615 0002970 272.2007  87.8812 14.98302494 68582,6950.278,96.109,574.207,570.079,0.0
55438.0,STARLINK-5074,PAYLOAD,2024-04-18 03:33:28,14.98307875,0.0002942,70.0008,5.3892,268.0899,91.9923,-7.125e-05,-9.43e-06,0.0,0 STARLINK-5074,1 55438U 23014AZ  24109.14824826 -.00000943  00000-0 -71250-4 0  9993,2 55438  70.0008   5.3892 0002942 268.0899  91.9923 14.98307875 68625,6950.261,96.108,574.171,570.082,0.0
55438.0,STARLINK-5074,PAYLOAD,2024-04-18 21:10:56,14.9833373,0.0003152,70.0,3.5361,274.4396,85.6403,-7.6478e-05,-1.006e-05,0.0,0 STARLINK-5074,1 55438U 23014AZ  24109.88259683 -.00001006  00000-0 -76478-4 0  9995,2 55438  70.0000   3.5361 0003152 274.4396  85.6403 14.98333730 67794,6950.181,96.107,574.237,569.856,0.0
55438.0,STARLINK-5074,PAYLOAD,2024-04-18 22:47:04,14.98329754,0.0003145,70.0008,3.3666,279.4138,80.6665,-5.9459e-05,-8.02e-06,0.0,0 STARLINK-5074,1 55438U 23014AZ  24109.94935879 -.00000802  00000-0 -59459-4 0  9993,2 55438  70.0008   3.3666 0003145 279.4138  80.6665 14.98329754 68741,6950.194,96.107,574.244,569.873,0.0
55438.0,STARLINK-5074,PAYLOAD,2024-04-19 01:59:20,14.98336216,0.000227,70.0024,3.0348,248.237,111.8548,-2.4416e-05,-3.84e-06,0.0,0 STARLINK-5074,1 55438U 23014AZ  24110.08287341 -.00000384  00000-0 -24416-4 0  9994,2 55438  70.0024   3.0348 0002270 248.2370 111.8548 14.98336216 67829,6950.174,96.107,573.616,570.461,0.0
55438.0,STARLINK-5074,PAYLOAD,2024-04-19 21:12:56,14.98323531,0.0002384,70.0023,1.014,248.2947,111.7958,0.00027878,3.234e-05,0.0,0 STARLINK-5074,1 55438U 23014AZ  24110.88399205  .00003234  00000-0  27878-3 0  9994,2 55438  70.0023   1.0140 0002384 248.2947 111.7958 14.98323531 68889,6950.213,96.107,573.735,570.421,0.0
55438.0,STARLINK-5074,PAYLOAD,2024-04-20 02:01:19,14.98340943,0.0003091,69.9997,0.5071,264.8349,95.2457,0.0003602,4.209e-05,0.0,0 STARLINK-5074,1 55438U 23014AZ  24111.08425877  .00004209  00000-0  36020-3 0  9994,2 55438  69.9997   0.5071 0003091 264.8349  95.2457 14.98340943 67974,6950.159,96.106,574.172,569.876,0.0
55438.0,STARLINK-5074,PAYLOAD,2024-04-20 19:38:50,14.98328478,0.0002895,70.0017,358.6582,265.2968,94.786,-0.00011903,-1.513e-05,0.0,0 STARLINK-5074,1 55438U 23014AZ  24111.81864004 -.00001513  00000-0 -11903-3 0  9994,2 55438  70.0017 358.6582 0002895 265.2968  94.7860 14.98328478 68081,6950.198,96.107,574.075,570.051,0.0
55438.0,STARLINK-5074,PAYLOAD,2024-04-21 02:03:22,14.98328281,0.0002999,70.0009,357.9838,268.2733,91.8083,-0.00012975,-1.641e-05,0.0,0 STARLINK-5074,1 55438U 23014AZ  24112.08568049 -.00001641  00000-0 -12975-3 0  9996,2 55438  70.0009 357.9838 0002999 268.2733  91.8083 14.98328281 69062,6950.198,96.107,574.148,569.979,0.0
55438.0,STARLINK-5074,PAYLOAD,2024-04-21 19:40:51,14.98332542,0.0002911,70.0005,356.1301,264.2219,95.8608,-0.00012545,-1.59e-05,0.0,0 STARLINK-5074,1 55438U 23014AZ  24112.82003820 -.00001590  00000-0 -12545-3 0  9995,2 55438  70.0005 356.1301 0002911 264.2219  95.8608 14.98332542 68233,6950.185,96.107,574.073,570.027,0.0
55438.0,STARLINK-5074,PAYLOAD,2024-04-21 22:53:07,14.98333965,0.0002793,70.0005,355.793,263.2319,96.8522,-9.329e-05,-1.206e-05,0.0,0 STARLINK-5074,1 55438U 23014AZ  24112.95355614 -.00001206  00000-0 -93290-4 0  9991,2 55438  70.0005 355.7930 0002793 263.2319  96.8522 14.98333965 69196,6950.181,96.107,573.987,570.104,0.0
55438.0,STARLINK-5074,PAYLOAD,2024-04-22 02:05:22,14.98345964,0.000273,70.0007,355.4574,263.6231,96.4617,2.2313e-06,-6.6e-07,0.0,0 STARLINK-5074,1 55438U 23014AZ  24113.08706489 -.00000066  00000-0  22313-5 0  9997,2 55438  70.0007 355.4574 0002730 263.6231  96.4617 14.98345964 68278,6950.144,96.106,573.906,570.111,0.0
55438.0,STARLINK-5074,PAYLOAD,2024-04-22 19:42:52,14.98317406,0.0002436,70.0028,353.6077,260.8158,99.2725,0.00011155,1.238e-05,0.0,0 STARLINK-5074,1 55438U 23014AZ  24113.82143891  .00001238  00000-0  11155-3 0  9992,2 55438  70.0028 353.6077 0002436 260.8158  99.2725 14.98317406 68382,6950.232,96.108,573.79,570.404,0.0
55438.0,STARLINK-5074,PAYLOAD,2024-04-22 22:55:08,14.98321749,0.0002718,70.0011,353.2689,263.5257,96.5592,7.1175e-05,7.56e-06,0.0,0 STARLINK-5074,1 55438U 23014AZ  24113.95495758  .00000756  00000-0  71175-4 0  9991,2 55438  70.0011 353.2689 0002718 263.5257  96.5592 14.98321749 69346,6950.218,96.108,573.972,570.194,0.0
55438.0,STARLINK-5074,PAYLOAD,2024-04-23 02:07:24,14.98328048,0.0003008,70.0005,352.9325,268.1951,91.8863,9.1039e-05,9.93e-06,0.0,0 STARLINK-5074,1 55438U 23014AZ  24114.08847379  .00000993  00000-0  91039-4 0  9990,2 55438  70.0005 352.9325 0003008 268.1951  91.8863 14.98328048 68423,6950.199,96.107,574.155,569.973,0.0
55438.0,STARLINK-5074,PAYLOAD,2024-04-23 21:21:01,14.98331691,0.0002653,70.001,350.9128,262.4468,97.6389,-4.6399e-05,-6.47e-06,0.0,0 STARLINK-5074,1 55438U 23014AZ  24114.88959693 -.00000647  00000-0 -46399-4 0  9998,2 55438  70.0010 350.9128 0002653 262.4468  97.6389 14.98331691 69485,6950.188,96.107,573.897,570.209,0.0
55438.0,STARLINK-5074,PAYLOAD,2024-04-24 02:09:25,14.98334095,0.0002547,70.0013,350.4086,254.8226,105.2652,-6.3719e-06,-1.69e-06,0.0,0 STARLINK-5074,1 55438U 23014AZ  24115.08987352 -.00000169  00000-0 -63719-5 0  9999,2 55438  70.0013 350.4086 0002547 254.8226 105.2652 14.98334095 68574,6950.18,96.107,573.815,570.275,0.0
55438.0,STARLINK-5074,PAYLOAD,2024-04-24 21:23:02,14.98325931,0.0002926,70.0017,348.3906,255.7462,104.3372,2.9413e-05,2.58e-06,0.0,0 STARLINK-5074,1 55438U 23014AZ  24115.89099718  .00000258  00000-0  29413-4 0  9997,2 55438  70.0017 348.3906 0002926 255.7462 104.3372 14.98325931 69634,6950.205,96.107,574.104,570.037,0.0
55438.0,STARLINK-5074,PAYLOAD,2024-04-25 02:11:26,14.98329114,0.0002708,70.0016,347.8839,241.2243,118.8644,3.6217e-05,3.39e-06,0.0,0 STARLINK-5074,1 55438U 23014AZ  24116.09127451  .00000339  00000-0  36217-4 0  9996,2 55438  70.0016 347.8839 0002708 241.2243 118.8644 14.98329114 68725,6950.196,96.107,573.943,570.179,0.0
55438.0,STARLINK-5074,PAYLOAD,2024-04-25 21:25:03,14.98327805,0.0002774,70.0016,345.8644,241.6897,118.3983,1.0064e-05,2.7e-07,0.0,0 STARLINK-5074,1 55438U 23014AZ  24116.89239615  .00000027  00000-0  10064-4 0  9996,2 55438  70.0016 345.8644 0002774 241.6897 118.3983 14.98327805 69782,6950.2,96.107,573.993,570.137,0.0
55438.0,STARLINK-5074,PAYLOAD,2024-04-26 00:37:19,14.9831265,0.0002768,70.0013,345.5234,272.9882,87.096,0.00026539,3.074e-05,0.0,0 STARLINK-5074,1 55438U 23014AZ  24117.02592131  .00003074  00000-0  26539-3 0  9995,2 55438  70.0013 345.5234 0002768 272.9882  87.0960 14.98312650 68862,6950.247,96.108,574.035,570.188,0.0
55438.0,STARLINK-5074,PAYLOAD,2024-04-26 16:38:40,14.98326116,0.0002533,70.0004,343.8414,257.9015,102.1861,-3.0096e-06,-1.29e-06,0.0,0 STARLINK-5074,1 55438U 23014AZ  24117.69351880 -.00000129  00000-0 -30096-5 0  9997,2 55438  70.0004 343.8414 0002533 257.9015 102.1861 14.98326116 68966,6950.205,96.107,573.83,570.309,0.0
55438.0,STARLINK-5074,PAYLOAD,2024-04-27 08:40:00,14.98333154,0.0002493,70.0009,342.1577,272.1005,87.9868,-8.5939e-06,-1.95e-06,0.0,0 STARLINK-5074,1 55438U 23014AZ  24118.36111522 -.00000195  00000-0 -85939-5 0  9998,2 55438  70.0009 342.1577 0002493 272.1005  87.9868 14.98333154 69065,6950.183,96.107,573.781,570.315,0.0
55438.0,STARLINK-5074,PAYLOAD,2024-04-27 21:29:05,14.9832638,0.000283,69.9996,340.8111,272.5811,87.5024,-1.987e-05,-3.3e-06,0.0,0 STARLINK-5074,1 55438U 23014AZ  24118.89519986 -.00000330  00000-0 -19870-4 0  9993,2 55438  69.9996 340.8111 0002830 272.5811  87.5024 14.98326380 69142,6950.204,96.107,574.036,570.102,0.0
55438.0,STARLINK-5074,PAYLOAD,2024-04-28 13:30:25,14.98302761,0.0002675,69.9995,339.128,270.4071,89.6782,0.0004224,4.947e-05,0.0,0 STARLINK-5074,1 55438U 23014AZ  24119.56279849  .00004947  00000-0  42240-3 0  9991,2 55438  69.9995 339.1280 0002675 270.4071  89.6782 14.98302761 70188,6950.277,96.109,574.001,570.283,0.0
55438.0,STARLINK-5074,PAYLOAD,2024-04-28 21:31:05,14.98325698,0.0002799,69.9996,338.2863,271.2719,88.8119,0.00012557,1.405e-05,0.0,0 STARLINK-5074,1 55438U 23014AZ  24119.89659691  .00001405  00000-0  12557-3 0  9998,2 55438  69.9996 338.2863 0002799 271.2719  88.8119 14.98325698 69290,6950.206,96.107,574.017,570.126,0.0
